ID,Key,Name,Phone,URL,Street,City,State,Zip,Lat,Lng,Note,MonOpen,MonClose,TueOpen,TueClose,WedOpen,WedClose,ThuOpen,ThuClose,FriOpen,FriClose,SatOpen,SatClose,SunOpen,SunClose
1,NcOrangeWRCBradshawQuarry,Waste and Recycling Center Bradshaw Quarry Road,(919) 968-2788,http://www.co.orange.nc.us/1149/Waste-Recycling-Centers,6705 Bradshaw Quarry Road,Mebane,NC,27302,35.97841,-79.23308,,-1,-1,7,18,-1,-1,-1,-1,7,18,7,17,13,18
2,NcOrangeWRCEubanks,Waste and Recycling Center Eubanks Road,(919) 968-2788,http://www.co.orange.nc.us/1149/Waste-Recycling-Centers,1514 Eubanks Road,Chapel Hill,NC,27516,35.96964,-79.08072,,7,18,7,18,-1,-1,7,18,7,18,7,17,13,18
3,NcOrangeWRCFerguson,Waste and Recycling Center Ferguson Road,(919) 968-2788,http://www.co.orange.nc.us/1149/Waste-Recycling-Centers,1616 Ferguson Road,Chapel Hill,NC,27516,35.89795,-79.15606,,-1,-1,7,18,-1,-1,-1,-1,7,18,7,17,13,18
4,NcOrangeWRCHighRock,Waste and Recycling Center High Rock Road,(919) 968-2788,http://www.co.orange.nc.us/1149/Waste-Recycling-Centers,7001 High Rock Road,Efland,NC,27243,36.1367,-79.2305,,-1,-1,7,18,-1,-1,-1,-1,7,18,7,17,13,18
5,NcOrangeWRCWalnutGroveChurch,Waste and Recycling Center Walnut Grove Church Road,(919) 968-2788,http://www.co.orange.nc.us/1149/Waste-Recycling-Centers,3605 Walnut Grove Church Road,Hillsborough,NC,27278,36.14425,-79.12083,,7,18,7,18,-1,-1,7,18,7,18,7,17,13,18
6,NcOrange24DropOffCedarFalls,24-Hour Recycling Drop-off Site Cedar Falls Park,(919) 968-2788,http://www.co.orange.nc.us/1011/24-Hour-Recycling-Drop-off-Sites,401 Weaver Dairy Road,Chapel Hill,NC,27516,35.96016,-79.03174,One mile east of Martin Luther King Boulevard on Weaver Dairy Road,0,24,0,24,0,24,0,24,0,24,0,24,0,24
7,NcOrange24DropOffHamptonPointe,24-Hour Recycling Drop-off Site Hampton Pointe,(919) 968-2788,http://www.co.orange.nc.us/1011/24-Hour-Recycling-Drop-off-Sites,625 Hampton Point Blvd,Hillsborough,NC,27278,36.05467,-79.08167,"Behind Home Depot, Highway 86 in Hillsborough",0,24,0,24,0,24,0,24,0,24,0,24,0,24
8,NcOrange24DropOffMeadowmont,24-Hour Recycling Drop-off Site Meadowmont,(919) 968-2788,http://www.co.orange.nc.us/1011/24-Hour-Recycling-Drop-off-Sites,116 West Barbee Chapel Rd,Chapel Hill,NC,27517,35.90665,-79.01102,Behind Harris Teeter,0,24,0,24,0,24,0,24,0,24,0,24,0,24
9,NcOrange24DropOffUniversityPlace,24-Hour Recycling Drop-off Site Estes/University Place,(919) 968-2788,http://www.co.orange.nc.us/1011/24-Hour-Recycling-Drop-off-Sites,201 Estes Dr,Chapel Hill,NC,27516,35.92169,-79.07292,"Parking lot, behind the gas station on Estes Drive (closing on May 31, 2022)",0,24,0,24,0,24,0,24,0,24,0,24,0,24
10,NcOrangeFoodWasteDropOffCarrboroFarmersMarket,Food Waste Drop-Off Site Carrboro Farmers Market,(919) 280-3326,http://www.carrborofarmersmarket.com/,301 W MAIN ST,CARRBORO,NC,27510,35.91116,-79.07732,,-1,-1,-1,-1,-1,-1,-1,-1,-1,-1,7,12,-1,-1
11,NcOrangeFoodWasteDropOffChapelHillFarmersMarket,Food Waste Drop-Off Site Chapel Hill Famers Market,(919) 533-9496,https://www.thechapelhillfarmersmarket.com/,201 S. Estes Drive,Chapel Hill,NC,27514,35.92795,-79.02973,,-1,-1,15,18,-1,-1,-1,-1,-1,-1,8,12,-1,-1
12,NcOrangeFoodWasteDropOffEnoRiverFarmersMarket,Food Waste Drop-Off Site Eno River Farmers Market,(919) 968-2788,http://www.enoriverfarmersmarket.com/,144 E Margaret Ln,Hillsborough,NC,27278,36.07392,-79.09771,,-1,-1,-1,-1,-1,-1,-1,-1,-1,-1,8,12,-1,-1
13,NcDurhamNewHopeCommonsWalmart,Walmart Supercenter New Hope Commons,(919) 489-4412,https://www.walmart.com/store/2137-durham-nc,5450 New Hope Commons Dr,Durham,NC,27707,35.95539,-78.99898,,6,23,6,23,6,23,6,23,6,23,6,23,6,23
14,NcChapelHillLowes,Lowes Chapel Hill,(919) 967-3289,https://www.lowes.com/,1801 Fordham Blvd,Chapel Hill,NC,27514,35.94856,-79.01131,,6,22,6,22,6,22,6,22,6,22,6,22,6,22
15,NcChapelHillStaples,Staples Chapel Hill,(919) 942-4115,https://www.staples.com/,1710 East Franklin Street,Chapel Hill,NC,27514,35.93535,-79.02734,,8,21,8,21,8,21,8,21,8,21,9,21,10,18
16,NcAlamanceHawRiver,"Stericycle, Inc.",(336) 380-7440,,1168 Porter Avenue,Haw River,NC,27258,36.0658156,-79.3490639,,,,,,,,,,,,,,,
17,NcAlamanceGraham,Austin Quarter,(336) 376-0411,,2701 Austin Quarter Road,Graham,NC,27253,35.9390401,-79.2934933,,,,,,,,,,,,,,,
18,NcAlamanceLiberty,Cobles C&D Landfill,(336) 264-4894,,5833 Foster Store Road,Liberty,NC,27298,35.948101,-79.527377,Alamance,,,,,,,,,,,,,,
19,NcAlamanceMebane,Carolina Resource Recovery LCID T&P Facility,(336) 214-7229,,3285 Jones Drive,Mebane,NC,27302,36.015983,-79.274392,Alamance,,,,,,,,,,,,,,
20,NcAlamanceBurlington,Key Properties LCID Landfill,(336) 380-2458,,2380 Sandy Cross Rd.,Burlington,NC,27217,36.1397196,-79.3576551,Alamance,,,,,,,,,,,,,,
21,NcAlexanderTaylorsville,Alexander County,(828) 632-1101,,2500 Paynes Dairy Road,Taylorsville,NC,28681,35.8386322,-81.1484436,Alexander,,,,,,,,,,,,,,
22,NcAlleghanySparta,Alleghany County Transfer Facility,(336) 372-4179,,419 Osborne Road,Sparta,NC,28675,36.492372,-81.1485469,Alleghany,,,,,,,,,,,,,,
23,NcAnsonPolkton,Chambers Development MSWLF,(704) 690-3240,,375 Dozer Dr,Polkton,NC,28135,34.9995594,-80.1689568,Anson,,,,,,,,,,,,,,
24,NcAnsonWadesboro,L & L Environmental Services LLC,(704) 294-0230,,2323 DIGGS RD.,Wadesboro,NC,28170,34.906488,-79.984595,Anson,,,,,,,,,,,,,,
25,NcAsheCumpler,Ashe County Landfill,(336) 846-3721,,739 Fred Pugh Road,Cumpler,NC,28617,36.518452,-81.368319,Ashe,,,,,,,,,,,,,,
26,NcAsheWestJefferson,Ashe County HHW Facility,(336) 846-3721,,311 Dogget RD,West Jefferson,NC,28694,36.4125135,-81.4893946,Ashe,,,,,,,,,,,,,,
27,NcAverySprucePine1,Avery County C&D Landfill,(828) 737-5420,,2175 Brushy Creek Rd.,Spruce Pine,NC,28777,35.9505751,-82.000799,Avery,,,,,,,,,,,,,,
28,NcAverySprucePine2,Avery County Transfer Station,(828) 737-5420,,2175 Brushy Creek Rd,Spruce Pine,NC,28777,35.9505751,-82.000799,Avery,,,,,,,,,,,,,,
29,NcBeaufortWashington,Beaufort Transfer Station,(252) 644-3207,,500 Flander Filter Road,Washington,NC,27889,35.5937962,-77.1129645,Beaufort,,,,,,,,,,,,,,
30,NcBertieAulander,East Carolina Environmental Regional Landfill,(252) 584-0026,,1922 Republican Road,Aulander,NC,27805,36.115539,-77.064747,Bertie,,,,,,,,,,,,,,
31,NcBladenElizabethtown,Bladen County Transfer Station,(910) 872-6320,,1522 Mercer Mill Road,Elizabethtown,NC,28337,34.6071469,-78.6030242,Bladen,,,,,,,,,,,,,,
32,NcYanceyBurnsville,Yancey-Mitchell Transfer Station,(828) 675-4043,,555 LANDFILL ROAD,Burnsville,NC,28714,35.9304099,-82.1786035,Yancey,,,,,,,,,,,,,,
33,NcBrunswickBolivia,Brunswick County,(910) 253-2524,,172 Landfill Rd NE,Bolivia,NC,28422,34.8601796,-77.9681478,Brunswick,,,,,,,,,,,,,,
34,NcBuncombeAsheville,Waste Management Of Asheville,(828) 210-1131,,24 Pond Rd,Asheville,NC,28806,35.5484105,-82.6026894,Buncombe,,,,,,,,,,,,,,
35,NcBuncombeAlexander,Buncombe County C&D MSW,(828) 250-5460,,81 Panther Branch Road,Alexander,NC,28701,35.7288362,-82.6360443,Buncombe,,,,,,,,,,,,,,
36,NcBuncombeAsheville1,Buncombe County Transfer Station,(828) 250-5460,,190 Hominy Creek Road,Asheville,NC,28806,35.5570841,-82.5940327,Buncombe,,,,,,,,,,,,,,
37,NcBuncombeAsheville2,Hensons' Inc. Mulch & More Asheville,(828) 859-5836,,116 Pond Rd.,Asheville,NC,28806,35.5443443,-82.6058887,Buncombe,,,,,,,,,,,,,,
38,NcBuncombeAsheville3,Riverside Stump Dump at Asheville,(828) 258-7339,,620 Riverside Drive,Asheville,NC,28801,35.607191,-82.5777205,Buncombe,,,,,,,,,,,,,,
39,NcBuncombeAsheville4,Handle Safe Systems Transfer Facility,(828) 273-9544,,432 Old Leicester Hwy,Asheville,NC,28806,35.6320232,-82.6197396,Buncombe,,,,,,,,,,,,,,
40,NcBuncombeSwannanoa,Warren Wilson College,(828) 771-2014,,701 Warren Wilson Road,Swannanoa,NC,28778,35.6114087,-82.4414224,Buncombe,,,,,,,,,,,,,,
41,NcBuncombeAsheville5,"Danny's Dumpster, Inc.",(828) 380-9094,,120 Hardesty Lane,Asheville,NC,28805,35.5733998,-82.4869823,Buncombe,,,,,,,,,,,,,,
42,NcBuncombeArden,Duke Energy Progress - Asheville,(980) 373-6636,,46 Duke Energy Lane,Arden,NC,28704,35.4670682,-82.5417719,Buncombe,,,,,,,,,,,,,,
43,NcBurkeMorganton,Burke County Johns River Waste Management,(828) 764-9064,,2500 Marsh Trail,Morganton,NC,28655,35.78525,-81.645287,Burke,,,,,,,,,,,,,,
44,NcCabarrusConcord1,Cabarrus County CDLF TypeI,(704) 920-3209,,4441 Irish Potato Rd,Concord,NC,28083,35.476934,-80.5176239,Cabarrus,,,,,,,,,,,,,,
45,NcCabarrusConcord2,US Tire Recycling Partners LP,(704) 784-1210,,6322 Poplar Tent Rd,Concord,NC,28027,35.4072133,-80.6785413,Cabarrus,,,,,,,,,,,,,,
46,NcCabarrusConcord3,BFI-Charlotte Mtr Speedway Landfill V,(704) 712-8560,,5105 Morehead Rd,Concord,NC,28027,35.345295,-80.68204,Cabarrus,,,,,,,,,,,,,,
47,NcCabarrusConcord4,Stericycle,(803) 730-1876,,4403 Republic Court,Concord,NC,28027,35.4185644,-80.6516599,Cabarrus,,,,,,,,,,,,,,
48,NcCabarrusConcord5,Highway 49 C&D Landfill & Recycling Greenway Waste,(704) 201-5944,,2105 Speedrail Rd,Concord,NC,28025,35.3378513,-80.6145468,Cabarrus,,,,,,,,,,,,,,
49,NcCabarrusharrisburg,"Tarheel Bark Company - A Division of Garick, LLC",(704) 456-8269,,8829 rocky river rd,harrisburg,NC,28075,35.291357,-80.637154,Cabarrus,,,,,,,,,,,,,,
50,NcCabarrusConcord6,Cabarrus County HHW Collection Facility,(704) 920-3209,,246 General Services Drive SW,Concord,NC,28025,35.372947,-80.5637849,Cabarrus,,,,,,,,,,,,,,
51,NcCabarrusConcord7,US Tire Recycling Partners LP,(704) 784-1210,,6322 Poplar Tent Rd,Concord,NC,28027,35.4072133,-80.6785413,Cabarrus,,,,,,,,,,,,,,
52,NcCabarrusConcord8,Morehead LCID Landfill,(704) 361-1218,,5001 Morehead Road,Concord,NC,28027,35.345045,-80.682207,Cabarrus,,,,,,,,,,,,,,
53,NcCaldwellLenoir,Foothills Environmental Landfill,(828) 394-3133,,2800 CHERAW RD,Lenoir,NC,28645,35.9153189,-81.5952409,Caldwell,,,,,,,,,,,,,,
54,NcCarteretNewport1,CRSWMA-Carteret County Transfer Station,(252) 633-1564,,800 Hibbs Road,Newport,NC,28570,34.7553005,-76.8757432,Carteret,,,,,,,,,,,,,,
55,NcCatawbaNewton2,Blackburn Resource Recovery,(704) 462-1348,,3993 Rocky Ford Road,Newton,NC,28658,35.6080013,-81.3116376,Catawba,,,,,,,,,,,,,,
56,NcCatawbaConover,GDS Recycling Services,(828) 419-3031,,130 SOMERSET DRIVE NW,Conover,NC,28601,35.7240938,-81.2509051,Catawba,,,,,,,,,,,,,,
57,NcCatawbaHickory1,"Hickory, City of Compost Facility",(828) 323-7439,,909 Cloninger Mill Rd,Hickory,NC,28602,35.7866662,-81.3009351,Catawba,,,,,,,,,,,,,,
58,NcCatawbaHickory2,"Hickory, City of Transfer Station",(828) 323-7439,,1050 1st Ave SW,Hickory,NC,28602,35.731086,-81.355782,Catawba,,,,,,,,,,,,,,
59,NcCatawbaTerrell,Duke Energy Carolinas-Marshall FGD,(980) 373-5697,,8320 East Highway 150,Terrell,NC,28673,35.5936415,-80.9658466,Catawba,,,,,,,,,,,,,,
60,NcChathamSilerCity,Waste Man. - Chatham Co Transfer Station,(919) 405-1497,,361 Waste Treatment Plant Rd,Siler City,NC,27344,35.7304951,-79.4281475,Chatham,,,,,,,,,,,,,,
61,NcChathamPittsboro,Chatham Co HHW Collection Facility,(919) 545-7874,,39 County Services Road,Pittsboro,NC,27312,35.741919,-79.2630529,Chatham,,,,,,,,,,,,,,
62,NcChathamGoldston1,Dean Brooks Farm,(919) 842-6063,,1193 Beal Road,Goldston,NC,27252,35.5461623,-79.3689071,Chatham,,,,,,,,,,,,,,
63,NcChathamNewHill,McGill - Merry Oaks Compost Facility,(919) 770-4416,,634 Christian Chapel Church Road,New Hill,NC,27562,35.6347434,-79.0072662,Chatham,,,,,,,,,,,,,,
64,NcChathamChapelHill,Stone Landfill LCID,(919) 971-0918,,52 Rock Hill Drive,Chapel Hill,NC,27517,35.8017271,-79.0318173,Chatham,,,,,,,,,,,,,,
65,NcChathamMoncure,Brickhaven No. 2,(502) 709-3273,,1271 Moncure-Flatwood Road,Moncure,NC,27559,35.5945895,-79.0107507,Chatham,,,,,,,,,,,,,,
66,NcChathamGoldston2,Pinnacle Waste Goldson Facility,(919) 708-8465,,67 Gulf Rd.,Goldston,NC,27252,35.5634375,-79.2887263,Chatham,,,,,,,,,,,,,,
67,NcCherokeeMurphy,Cherokee County MSW Facility,(828) 837-2621,,75 Peachtree St,Murphy,NC,28906,35.086994,-84.032853,Cherokee,,,,,,,,,,,,,,
68,NcChowanEdenton1,"Edenton, Town of Transfer Station",(252) 482-4111,,118 W. Hicks St.,Edenton,NC,27932,36.0676994,-76.6082811,Chowan,,,,,,,,,,,,,,
69,NcChowanEdenton2,Good Earth Horticulture,(252) 482-8528,,2116 B Bio comp drive,"Edenton,",NC,27932,36.021208,-76.5535544,Chowan,,,,,,,,,,,,,,
70,NcClayHayesville,Clay County Transfer Station,(828) 389-9133,,1160 Hinton Center Rd.,Hayesville,NC,28904,35.030146,-83.7847929,Clay,,,,,,,,,,,,,,
71,NcClevelandShelby,Cleveland County CDLF,(704) 447-8204,,1607 AIRPORT RD,Shelby,NC,28150,35.3262915,-81.484203,Cleveland,,,,,,,,,,,,,,
72,NcClevelandCherryville,Cleveland County Landfill SeLF,(704) 447-8204,,250 FIELDING RD,Cherryville,NC,,35.3413366,-81.4681563,Cleveland,,,,,,,,,,,,,,
73,NcColumbusWhiteville1,Columbus County Landfill,(910) 234-1417,,107 Landfill Road,Whiteville,NC,28472,34.289712,-78.751679,Columbus,,,,,,,,,,,,,,
74,NcColumbusRiegelwood,International Paper,(910) 362-4934,,865 John L Riegel Road,Riegelwood,NC,28456,34.3536779,-78.2127818,Columbus,,,,,,,,,,,,,,
75,NcColumbusWhiteville2,Columbus County Transfer Station,(910) 234-1417,,107 Landfill Road,Whiteville,NC,28472,34.289712,-78.751679,Columbus,,,,,,,,,,,,,,
76,NcColumbusDelco,Big D T&P Facility,(843) 340-8815,,1535 Old 87 Road,Delco,NC,28436,34.3120933,-78.2074922,Columbus,,,,,,,,,,,,,,
77,NcCravenNewBern1,New Bern Yard Waste Facility,(252) 637-7310,,1803 Country Club Road,New Bern,NC,28562,35.0976386,-77.0614205,Craven,,,,,,,,,,,,,,
78,NcCravenNewBern2,CRSWMA - Long Term Regional Landfill,(252) 633-1564,,7400 Old Highway 70 West,New Bern,NC,28562,35.1634758,-77.227524,Craven,,,,,,,,,,,,,,
79,NcCravenMCASCherryPoint1,Cherry Point Transfer Station,(252) 466-5271,,100 Mockingbird Hill Bldg 4185,MCAS Cherry Point,NC,28532,34.883318,-76.9062,Craven,,,,,,,,,,,,,,
80,NcCravenVanceboro,Craven LCID Landfill,(252) 670-6749,,415 Streets Ferry Rd.,Vanceboro,NC,28586,35.2894156,-77.1526297,Craven,,,,,,,,,,,,,,
81,NcCravenNewBern3,Craven Ag Service Compost Facility,(252) 633-5334,,2115 Hwy 55 West,New Bern,NC,28562,35.1670215,-77.1620099,Craven,,,,,,,,,,,,,,
82,NcCravenMCASCherryPoint2,Cherry Point LCID,(252) 466-5271,,Environmental Affairs Department,MCAS Cherry Point,NC,28532,34.883318,-76.9062,Craven,,,,,,,,,,,,,,
83,NcCravenHavelock,Cieszko LCID,(252) 447-2096,,1090 NC Hwy 101,Havelock,NC,28532,34.876009,-76.85128,Craven,,,,,,,,,,,,,,
84,NcCumberlandFayetteville1,Cumberland County Landfill,(910) 438-4041,,698 Ann Street,Fayetteville,NC,28301,35.0623009,-78.8717368,Cumberland,,,,,,,,,,,,,,
85,NcCumberlandFortBragg,Fort Bragg Transfer Station,(910) 396-2295,,Building # O-3454,Fort Bragg,NC,28307,35.1414552,-79.0079949,Cumberland,,,,,,,,,,,,,,
86,NcCumberlandFayetteville2,Fort Bragg Transfer Station,(910) 237-2825,,583 Winslow Street,Fayetteville,NC,28306,35.0453178,-78.8892588,Cumberland,,,,,,,,,,,,,,
87,NcCumberlandFayetteville3,Wilkes Road Yard Waste Facility,(919) 438-4041,,771 Wilkes Road,Fayetteville,NC,28306,35.026288,-78.8707249,Cumberland,,,,,,,,,,,,,,
88,NcCumberlandFayetteville4,Highland LCID Landfill,(910) 978-2412,,6020 Murchison Rd.,Fayetteville,NC,28311,35.1186153,-78.9329598,Cumberland,,,,,,,,,,,,,,
89,NcCumberlandFayetteville5,AAA Hauling Of NC Inc,(910) 321-6037,,1171 S Eastern Blvd,Fayetteville,NC,28306,35.0275171,-78.8842181,Cumberland,,,,,,,,,,,,,,
90,NcCumberlandFayetteville6,Cumberland Co HHW Collection Facility,(910) 438-4041,,823 Wilkes Road,Fayetteville,NC,28306,35.0245212,-78.8718357,Cumberland,,,,,,,,,,,,,,
91,NcCumberlandFayetteville7,Doc Bennett LCID Landfill,(910) 978-2412,,Sandy Run Rd.,Fayetteville,NC,28306,34.9635184,-78.8623218,Cumberland,,,,,,,,,,,,,,
92,NcCumberlandFayetteville8,Snow Hill LCID Landfill,(910) 630-2200,,Claude Lee Road,Fayetteville,NC,28306,34.9825609,-78.8903256,Cumberland,,,,,,,,,,,,,,
93,NcCumberlandHopeMills,"Autry Grading, Inc., LCID Landfill",(910) 424-3458,,5124 US Hwy 301 S,Hope Mills,NC,28348,34.9484317,-78.9294756,Cumberland,,,,,,,,,,,,,,
94,NcCurrituckCurrituck,Currituck Transfer Station,(252) 232-2504,,153 Courthouse Road Suite 302,Currituck,NC,27929,36.4499012,-76.01632,Currituck,,,,,,,,,,,,,,
95,NcCurrituckJarvisburg,Soundside C&D Waste Transfer & Recycling Center,(252) 491-8666,,7565 Caratoke Hwy,Jarvisburg,NC,27947,36.1690518,-75.8597272,Currituck,,,,,,,,,,,,,,
96,NcCurrituckPowellsPoint,"Bay Disposal, LLC",(757) 355-1591,,8546 Caratoke Hwy,Powells Point,NC,27966,36.1098373,-75.8251826,Currituck,,,,,,,,,,,,,,
97,NcDareMannsHarbor,Dare County C&D and Transfer Station,(252) 473-2059,,1603 Cub Rd,Manns Harbor,NC,27953,35.8312955,-75.8181771,Dare,,,,,,,,,,,,,,
98,NcDavidsonLexington1,Davidson County HHW,(336) 240-0303,,220 Davidson County Landfill Road,Lexington,NC,27360,35.8371961,-80.1710635,Davidson,,,,,,,,,,,,,,
99,NcDavidsonThomasville1,Davidson County MSW Lined Landfill,(336) 240-0303,,1160 Old Hwy 29,Thomasville,NC,27360,35.8527991,-80.1777633,Davidson,,,,,,,,,,,,,,
100,NcDavidsonThomasville2,Davidson County Transfer Facility,(336) 240-0303,,1242 Old Highway 29,Thomasville,NC,27360,35.852307,-80.176552,Davidson,,,,,,,,,,,,,,
101,NcDavidsonLexington2,"Todco, Inc. Wood Recycling and C&D",(336) 248-2001,,1123 Roy Lopp Rd,Lexington,NC,27292,35.830315,-80.1747182,Davidson,,,,,,,,,,,,,,
102,NcDavidsonWinstonSalem,"Veach Landfill, L.L.C.",(336) 462-3643,,4261 Old Thomasville Rd,Winston Salem,NC,27107,35.979548,-80.189527,Davidson,,,,,,,,,,,,,,
103,NcDavieAdvance,Davie County Compost Facility,(704) 875-2975,,221 Wallace Fam Lane,Advance,NC,28213,35.9791135,-80.5026131,Davie,,,,,,,,,,,,,,
104,NcDavieMocksville,Gallins Family Farm,(336) 448-9494,,222 Rocky Dale Lane,Mocksville,NC,27028,35.973268,-80.53904,Davie,,,,,,,,,,,,,,
105,NcDuplinRoseHill1,Duplin County Transfer Station,(910) 289-3091,,325 Landfill Road,Rose Hill,NC,28458,34.8595511,-77.9799856,Duplin,,,,,,,,,,,,,,
106,NcDuplinRoseHill2,Duplin County LCID Landfill,(910) 289-3091,,325 Landfill Road,Rose Hill,NC,28458,34.8595511,-77.9799856,Duplin,,,,,,,,,,,,,,
107,NcDurhamDurham1,"Durham Compost Facility, HHW, Transfer Station",(919) 560-4186,,2115 E. Club Blvd,Durham,NC,27704,36.0263287,-78.857219,Durham,,,,,,,,,,,,,,
108,NcDurhamDurham2,Stone Park Court Transfer Station,(919) 596-1363,,210 Stone Park Ct.,Durham,NC,27703,35.9502491,-78.8558033,Durham,,,,,,,,,,,,,,
109,NcDurhamDurham3,"New Soil Vermiculture, LLC",(202) 374-0403,,314 Latta Road,Durham,NC,27712,36.0777532,-78.9198985,Durham,,,,,,,,,,,,,,
110,NcDurhamDurham4,Elite Waste Services Holman MWP Facility,(321) 441-5977,,201 S. Holman St.,Durham,NC,27701,35.9857136,-78.8875302,Durham,,,,,,,,,,,,,,
111,NcDurhamDurham5,Fogleman and Fogleman Landfill & Recycling Facility,(919) 682-0068,,4005 Intermere Road,Durham,NC,27704,36.0494419,-78.8129047,Durham,,,,,,,,,,,,,,
112,NcDurhamDurham6,Currin Landfill #2,(919) 876-1138,,1810 Coley Road,Durham,NC,27703,35.968941,-78.74203,Durham,,,,,,,,,,,,,,
113,NcDurhamDurham7,Waste Industries- Stone Park Ct. LCID LF,(919) 557-9583,,208 Stone Park Ct,Durham,NC,27703,35.9502491,-78.8558033,Durham,,,,,,,,,,,,,,
114,NcEdgecombeTarboro1,Edgecombe County CDLF,(258) 827-4253,,2872 Colonial Road,Tarboro,NC,27886,35.8221102,-77.5632476,Edgecombe,,,,,,,,,,,,,,
115,NcEdgecombeTarboro2,Edgecombe County Transfer Station,(252) 827-4253,,2872 Colonial Rd,Tarboro,NC,27886,35.8221102,-77.5632476,Edgecombe,,,,,,,,,,,,,,
116,NcEdgecombeBattleboro,"Eastern Compost, LLC",(252) 446-2536,,8487 Battleboro-Leggett Road,Battleboro,NC,27809,36.0391033,-77.7414314,Edgecombe,,,,,,,,,,,,,,
117,NcEdgecombeRockyMount1,Barnhill Contracting LCID Landfill,(252) 904-3358,,10826 NC 97,Rocky Mount,NC,27801,35.9781158,-77.7492608,Edgecombe,,,,,,,,,,,,,,
118,NcEdgecombeRockyMount2,"Rocky Mount , City of LCID Landfill",(252) 467-4909,,3873 Old Battleboro Road,Rocky Mount,NC,27809,35.9989519,-77.7535141,Edgecombe,,,,,,,,,,,,,,
119,NcForsythWinston-Salem1,Hanes Mill Road Landfill,(336) 747-7310,,325 West Hanes Mill Road,Winston-Salem,NC,27105,36.188006,-80.2824369,Forsyth,,,,,,,,,,,,,,
120,NcForsythWinston-Salem2,Overdale Yard Waste Facility,(336) 747-7310,,4010 Old Milwaukee Lane,Winston-Salem,NC,27107,36.0381357,-80.2239756,Forsyth,,,,,,,,,,,,,,
121,NcForsythWinston-Salem3,"Winston-Salem, City of Old Salisbury Road CDLF",(336) 747-7310,,3336 Old Salisbury Road,Winston-Salem,NC,27127,35.997859,-80.27012,Forsyth,,,,,,,,,,,,,,
122,NcForsythWinston-Salem4,"Resource Recovery And Reduction, Co.",(336) 784-4300,,"1401 S. MLK, Jr. Drive",Winston-Salem,NC,27107,36.0803749,-80.2198714,Forsyth,,,,,,,,,,,,,,
123,NcForsythWinston-Salem5,Overdale Road Transfer Station,(336) 714-4301,,5000 Overdale Road,Winston-Salem,NC,27107,36.0332214,-80.232095,Forsyth,,,,,,,,,,,,,,
124,NcForsythWINSTONSALEM,"Lowder Recycling And Disposal, LLC",(336) 760-0477,,2810 GRIFFITH RD,WINSTON SALEM,NC,27103,36.0375446,-80.3133424,Forsyth,,,,,,,,,,,,,,
125,NcForsythSmithfield,OmniSource Southeast,(919) 796-3023,,2233 Wal-Pat Rd,Smithfield,NC,27577,35.481267,-78.365974,Forsyth,,,,,,,,,,,,,,
126,NcForsythWinstonSalem6,Dixie Classic Fairgrounds,(336) 409-4881,,421 west 27th street,Winston Salem,NC,27107,36.1279412,-80.2538132,Forsyth,,,,,,,,,,,,,,
127,NcForsythWinstonSalem7,Slater Industries Treatment and Processing Facility,(336) 416-6097,,945 Valley Stream Road,Winston-Salem,NC,27104,36.0822807,-80.3674935,Forsyth,,,,,,,,,,,,,,
128,NcForsythRuralHall,"Winston-Salem, City of Compost",(336) 747-7310,,180 North Star Drive,Rural Hall,NC,27045,36.206981,-80.288712,Forsyth,,,,,,,,,,,,,,
129,NcForsythWinstonSalem8,"Abbey Green, Inc",(336) 207-6052,,5030 Overdale Rd.,Winston Salem,NC,27107,36.0323363,-80.2341656,Forsyth,,,,,,,,,,,,,,
130,NcForsythWinstonSalem9,"Winston-Salem, City of Treatment & Processing Site",(336) 734-1490,,3 W. 32nd Street,Winston-Salem,NC,27105,36.132394,-80.2450046,Forsyth,,,,,,,,,,,,,,
131,NcForsythKernersville1,Piney Hill Acres Large Type 1 Compost Unit,(336) 682-2317,,2020 Piney Grove Rd.,Kernersville,NC,27284,36.1734517,-80.0590095,Forsyth,,,,,,,,,,,,,,
132,NcForsythKernersville2,Piney Hill Acres LCID Landfill,(336) 682-2317,,2020 Piney Grove Rd.,Kernersville,NC,27284,36.1734517,-80.0590095,Forsyth,,,,,,,,,,,,,,
133,NcFranklinFranklinton3,Franklin County Transfer Station,(919) 340-4670,,32 Landfill Road,Franklinton,NC,27525,36.0556753,-78.376391,Franklin,,,,,,,,,,,,,,
134,NcFranklinFranklinton4,Wall Recycling,(919) 906-2747,,2095 US-1,Franklinton,NC,27525,36.066874,-78.486555,Franklin,,,,,,,,,,,,,,
135,NcFranklinFranklinton5,Wall Recycling,(919) 906-2747,,2095 US-1,Franklinton,NC,27525,36.066874,-78.486555,Franklin,,,,,,,,,,,,,,
136,NcFranklinFranklinton6,Wall Recycling,(919) 906-2747,,2095 US-1,Franklinton,NC,27525,36.066874,-78.486555,Franklin,,,,,,,,,,,,,,
137,NcFranklinZebulon,David Brantley & Sons Compost Facility,(978) 209-2966,,154 Green House Dr,Zebulon,NC,27597,35.9263095,-78.2561801,Franklin,,,,,,,,,,,,,,
138,NcFranklinFranklinton,"PRTI, INC.",(919) 272-4414,,2105 US 1 HWY,Franklinton,NC,27525,36.0647307,-78.4864665,Franklin,,,,,,,,,,,,,,
139,NcGastonDallas1,Gaston County C&D Landfill,(704) 862-7551,,3155 Philadelphia Church Road,Dallas,NC,28034,35.388153,-81.1724566,Gaston,,,,,,,,,,,,,,
140,NcGastonDallas2,Gaston County Landfill,(704) 862-7551,,3155 Philadelphia Church Road,Dallas,NC,28034,35.388153,-81.1724566,Gaston,,,,,,,,,,,,,,
141,NcGastonGastonia,Waste Management Of Carolinas,(704) 869-7663,,2712 Lowell Rd,Gastonia,NC,28054,35.280427,-81.1192951,Gaston,,,,,,,,,,,,,,
142,NcGastonDallas3,Gaston County HHW Collection Facility,(704) 922-0267,,120 Leisure Lane,Dallas,NC,28034,35.3134115,-81.1993202,Gaston,,,,,,,,,,,,,,
143,NcGastonBelmont,Duke Energy Carolinas - Allen,(704) 382-7171,,253 Plant Allen Road,Belmont,NC,28012,35.1899259,-81.0090336,Gaston,,,,,,,,,,,,,,
144,NcGastonDallas4,Earth Farms Organics,(704) 280-4005,,351 Colt Thornburg Road,Dallas,NC,28034,35.3571272,-81.1748323,Gaston,,,,,,,,,,,,,,
145,NcGastonGastonia1,Gastonia Compost,(704) 214-9086,,PO Box 1748,GASTONIA,NC,28052,35.262082,-81.1873005,Gaston,,,,,,,,,,,,,,
146,NcGastonGastonia2,Trilogy MedWaste Southeast LLC,(704) 503-8134,,148 Boxwood Lane,Gastonia,NC,28054,35.2816537,-81.1822427,Gaston,,,,,,,,,,,,,,
147,NcGastonGastonia3,"Daniels Sharpsmart, Inc.",(704) 842-7103,,1851 Chespark Dr.,Gastonia,NC,28052,35.2884669,-81.2196102,Gaston,,,,,,,,,,,,,,
148,NcGastonMtHolly,Old 27 LCID Landfill,(704) 718-6386,,130 Tate st,Mt Holly,NC,28120,35.3251909,-81.0269289,Gaston,,,,,,,,,,,,,,
149,NcGrahamRobbinsville,Graham County Transfer Station,(828) 479-9369,,400 Snowbird Rd.,Robbinsville,NC,28771,35.313988,-83.814299,Graham,,,,,,,,,,,,,,
150,NcGranvilleOxford1,Oxford Subtitle D MSWLF,(919) 691-0928,,6584 Landfill Road,Oxford,NC,27565,36.3699133,-78.6233848,Granville,,,,,,,,,,,,,,
151,NcGranvilleOxford2,John Bryan Yard Waste Recycling,(919) 690-2640,,3092 Sam Usry Rd,Oxford,NC,27565,36.214032,-78.6122759,Granville,,,,,,,,,,,,,,
152,NcGreeneWalstonburg,Greene County CDLF,(252) 747-5720,,105 landfill rd,Walstonburg,NC,27888,35.5251592,-77.6951931,Greene,,,,,,,,,,,,,,
153,NcGuilfordGreensboro1,"Greensboro, City of White Street Landfill",(336) 373-4188,,2503 White Street,Greensboro,NC,27405,36.1082799,-79.7312023,Guilford,,,,,,,,,,,,,,
154,NcGuilfordGreensboro2,"Greensboro, City of Compost Facility",(336) 373-4188,,2503 White Street,Greensboro,NC,27405,36.1082799,-79.7312023,Guilford,,,,,,,,,,,,,,
155,NcGuilfordHighPoint1,"High Point, City of MSW Landfill",(336) 688-3454,,3940 Kivett Dr,High Point,NC,27263,35.9546247,-79.9318623,Guilford,,,,,,,,,,,,,,
156,NcGuilfordHighPoint2,Ingleside Compost Facility,(336) 688-3454,,3001 Ingleside Dr,High Point,NC,27265,35.9971759,-80.038276,Guilford,,,,,,,,,,,,,,
157,NcGuilfordGreensboro1,"Greensboro, City of White Street Landfill",(336) 373-4188,,2503 White Street,Greensboro,NC,27405,36.1082799,-79.7312023,Guilford,,,,,,,,,,,,,,
158,NcGuilfordJamestown1,"WI-High Point Landfill, LLC, a wholly owned subsidiary of Waste Industries USA, LLC.",(336) 668-3712,,5830 Riverdale Dr,Jamestown,NC,27282,35.9517968,-79.9228072,Guilford,,,,,,,,,,,,,,
159,NcGuilfordJamestown2,High Point C&D Waste Reclamation,(336) 668-3712,,5830 Riverdale Dr.,Jamestown,NC,27282,35.9517968,-79.9228072,Guilford,,,,,,,,,,,,,,
160,NcGuilfordGreensboro2,A-1 Sandrock C&D Landfill,(336) 382-9707,,2091 Bishop Road,Greensboro,NC,27406,35.993351,-79.8441529,Guilford,,,,,,,,,,,,,,
161,NcGuilfordGreensboro3,Bishop Road Transfer Station,(336) 997-8342,,2140 Bishop Road,Greensboro,NC,27406,35.9927409,-79.853132,Guilford,,,,,,,,,,,,,,
162,NcGuilfordGreensboro4,Guilford Cty Scrap Tire & White Goods Collection Facility,(336) 641-3792,,2138 Bishop Road,Greensboro,NC,27406,35.9938167,-79.854401,Guilford,,,,,,,,,,,,,,
163,NcGuilfordGreensboro5,"Greensboro, City of Transfer Station",(336) 373-4188,,6310 Burnt Poplar Road,Greensboro,NC,27409,36.0739692,-79.9210805,Guilford,,,,,,,,,,,,,,
164,NcGuilfordGreensboro6,WI Burnt Poplar Transfer LLC,(336) 668-3712,,6313 Burnt Poplar Rd,Greensboro,NC,27409,36.0709349,-79.9255227,Guilford,,,,,,,,,,,,,,
165,NcGuilfordSummerfield1,"Winfree Road Landfill, Inc.",(336) 643-3791,,7965 Winfree Rd,Summerfield,NC,27358,36.226377,-79.908096,Guilford,,,,,,,,,,,,,,
166,NcGuilfordSummerfield2,"Heritage Farm Properties, LLC LCID Landfill",(336) 681-3300,,2124 Scalesville Road,Summerfield,NC,27358,36.2167265,-79.8895535,Guilford,,,,,,,,,,,,,,
167,NcGuilfordGreensboro7,Doggett Construction Company,(336) 681-3300,,2075 Bishop Road,Greensboro,NC,27406,35.9938169,-79.8417389,Guilford,,,,,,,,,,,,,,
168,NcGuilfordMcLeansville1,Fryar Grading and Hauling LCID Landfill,(336) 382-7462,,5233 McLeansville Rd.,McLeansville,NC,27301,36.094901,-79.6766749,Guilford,,,,,,,,,,,,,,
169,NcGuilfordGreensboro8,Viewmont Sandrock Mine And Landfill,(704) 409-1475,,4052 Viewmont Road,Greensboro,NC,27406,35.9982567,-79.8467698,Guilford,,,,,,,,,,,,,,
170,NcGuilfordMcLeansville2,"D & D Grading, Inc. ",(336) 621-4021,,4111 Rankin Mill Road,McLeansville,NC,27405,36.1526802,-79.7104685,Guilford,,,,,,,,,,,,,,
171,NcHalifaxLittleton1,Halifax County Landfill,(252) 586-7516,,921 Liles Rd.,Littleton,NC,27850,36.3791383,-77.8147773,Halifax,,,,,,,,,,,,,,
172,NcHalifaxLittleton2,Halifax County Landfill,(252) 586-7516,,921 Liles Rd.,Littleton,NC,27850,36.3791383,-77.8147773,Halifax,,,,,,,,,,,,,,
173,NcHalifaxHalifax,"Weldon, Town of Transfer Facility",(252) 536-2011,,2211 Hwy 301 North,Halifax,NC,27893,35.7310716,-77.8832657,Halifax,,,,,,,,,,,,,,
174,NcHalifaxWeldon,Roanoke Valley LCID Landfill,(252) 537-3223,,2055 Hwy 301,Weldon,NC,27577,35.7310716,-77.8832657,Halifax,,,,,,,,,,,,,,
175,NcHarnettDunn1,Dunn-Erwin Area 2 C&D Landfill,(910) 814-6004,,449 Daniels Rd.,Dunn,NC,28334,35.3666009,-78.6483784,Harnett,,,,,,,,,,,,,,
176,NcHarnettDunn2,Harnett County-Dunn/Erwin LCID Landfill,(910) 814-6004,,449 Daniels Road,Dunn,NC,28334,35.3666009,-78.6483784,Harnett,,,,,,,,,,,,,,
177,NcHarnettSpringLake,Harnett Co. Anderson Creek C&D Landfill,(910) 814-6004,,1086 Poplar Drive,Spring Lake,NC,27546,35.2929848,-78.9957237,Harnett,,,,,,,,,,,,,,
178,NcHarnettCameron1,Central Carolina Tire Monofill,(919) 498-7431,,1616 Mckoy Town Rd,Cameron,NC,28326,35.2641658,-79.1508627,Harnett,,,,,,,,,,,,,,
179,NcHarnettDunn,Harnett County Transfer Station,(910) 814-6004,,449 Daniels Rd.,Dunn,NC,28334,35.3666009,-78.6483784,Harnett,,,,,,,,,,,,,,
180,NcHarnettCameron2,Central Carolina Tire Processing,(919) 498-7431,,1616 Mckoy Town Rd,Cameron,NC,28326,35.2641658,-79.1508627,Harnett,,,,,,,,,,,,,,
181,NcHarnettSpringLake,Anderson Creek Landfill Transfer Station,(910) 814-6004,,1086 Poplar Drive,Spring Lake,NC,27546,35.2929848,-78.9957237,Harnett,,,,,,,,,,,,,,
182,NcHarnettSanford,Blaylock Grading LCID Landfill,(910) 818-8398,,1025 Claude White Rd.,Sanford,NC,27332,35.3125614,-79.1608313,Harnett,,,,,,,,,,,,,,
183,NcHarnettFuquayVarina,Bryant Grading LCID Landfill,(919) 552-3420,,376 Spence Mill Road,Fuquay Varina,NC,27526,35.5291318,-78.8232061,Harnett,,,,,,,,,,,,,,
184,NcHarnettBunnlevel,McArtan Mine LCID Landfill,(910) 978-2412,,"SR 2027, Josey Williams Rd.",Bunnlevel,NC,28339,35.267944,-78.7739223,Harnett,,,,,,,,,,,,,,
185,NcHarnettCameron,Weeks Sandpit #2 LCID,(919) 353-0865,,20710 NC Hwy 24 / 27,Cameron,NC,28326,35.2815396,-79.1215475,Harnett,,,,,,,,,,,,,,
186,NcHaywoodCanton,"Blue Ridge Paper Products, Inc.",(828) 424-0101,,1155 Incinerator Road,Canton,NC,28721,35.5475368,-82.8761331,Haywood,,,,,,,,,,,,,,
187,NcHaywoodWaynesville,Haywood Co White Oak Landfill,(423) 650-3095,,3898 Fines Creek Road,Waynesville,NC,28785,35.6632432,-83.0000561,Haywood,,,,,,,,,,,,,,
188,NcHaywoodClyde,Haywood County MWP Facility,(828) 627-8042,,278 Recycle Road,Clyde,NC,28721,35.529539,-82.942814,Haywood,,,,,,,,,,,,,,
189,NcHendersonHendersonville1,Henderson County HHW Unit,(828) 388-8377,,265 Convenience Center Drive,Hendersonville,NC,28791,35.352854,-82.4934326,Henderson,,,,,,,,,,,,,,
190,NcHendersonHendersonville2,Henderson County Transfer Facility,(828) 388-8377,,191 Transfer Station Drive,Hendersonville,NC,28791,35.3528192,-82.497239,Henderson,,,,,,,,,,,,,,
191,NcHendersonMillsRiver,Riverside Stump Dump at Mills River,(828) 258-7339,,5055 Old Haywood Road,Mills River,NC,28759,35.4034181,-82.5702301,Henderson,,,,,,,,,,,,,,
192,NcHertfordAhoskie,Hertford County Transfer Station,(252) 358-3601,,227 Mount Moriah Rd,Ahoskie,NC,27910,36.391646,-76.972138,Hertford,,,,,,,,,,,,,,
193,NcHokeRaeford1,Hoke County Transfer Station,(910) 875-3111,,700 CC Steele Rd.,Raeford,NC,28376,35.007456,-79.2177911,Hoke,,,,,,,,,,,,,,
194,NcHokeRaeford2,Hoke County LCID Landfill,(910) 875-3111,,700 C.C. Steele Rd,Raeford,NC,28376,35.007456,-79.2177911,Hoke,,,,,,,,,,,,,,
195,NcHydePantego,Rose Acre Farms,(252) 935-5800,,1560 Hyde Park Canal,Pantego,NC,27860,35.6141035,-76.5100796,Hyde,,,,,,,,,,,,,,
196,NcIredellStatesville1,Iredell County Househouse Hazardous Waste,(704) 878-5430,,354 Twin Oaks Road,Statesville,NC,28625,35.7702072,-80.823592,Iredell,,,,,,,,,,,,,,
197,NcIredellStatesville2,Iredell County Sanitary LF,(704) 878-5430,,354 Twin Oaks Road,Statesville,NC,28625,35.7702072,-80.823592,Iredell,,,,,,,,,,,,,,
198,NcIredellMooresville,Iredell County Transfer Station,(707) 878-5430,,158 Macleod Drive,Mooresville,NC,28117,35.5883639,-80.8417911,Iredell,,,,,,,,,,,,,,
199,NcJacksonSylva,Jackson County Scott Creek Transfer Station,(828) 586-2437,,48 Recycle Place,Sylva,NC,28779,35.3862939,-83.2117868,Jackson,,,,,,,,,,,,,,
200,NcJohnstonSmithfield1,Johnston County C&D Landfill,(919) 938-4750,,680 County Home Road,Smithfield,NC,27577,35.5118897,-78.4290746,Johnston,,,,,,,,,,,,,,
201,NcJohnstonSmithfield2,Johnston County Landfill,(919) 938-4750,,680 County Home Road,Smithfield,NC,27577,35.5118897,-78.4290746,Johnston,,,,,,,,,,,,,,
202,NcJohnstonSmithfield3,Johnston County Landfill,(919) 938-4750,,680 County Home Road,Smithfield,NC,27577,35.5118897,-78.4290746,Johnston,,,,,,,,,,,,,,
203,NcJohnstonNewtonGrove,West Farms Wood Products T&P,(919) 207-2539,,1683 Barefood Road,Newton Grove,NC,28366,35.3056386,-78.3941536,Johnston,,,,,,,,,,,,,,
204,NcJonesMaysville1,Maysville C&D Recycling & Recovery Facility,(910) 284-2309,,11710 Hwy 17N,Maysville,NC,28555,34.9048814,-77.2313436,Jones,,,,,,,,,,,,,,
205,NcJonesMaysville2,Maysville C & D,(910) 284-2309,,11710 Hwy 17 N,Maysville,NC,28555,34.9282646,-77.2406005,Jones,,,,,,,,,,,,,,
206,NcLeeSanford1,Sanford Compost Facility,(919) 777-1209,,601 N 5th St,Sanford,NC,27330,35.4907898,-79.1718721,Lee,,,,,,,,,,,,,,
207,NcLeeSanford2,Waste Man. - Lee Co. Transfer Station,(910) 480-4024,,2720 Wilkins Dr,Sanford,NC,27330,35.5043275,-79.2042699,Lee,,,,,,,,,,,,,,
208,NcLeeSanford3,Sanford Transfer Station,(910) 237-2825,,3290 McDonald Drive,Sanford,NC,27330,35.4428531,-79.1357145,Lee,,,,,,,,,,,,,,
209,NcLenoirLaGrange1,Lenoir County CDLF,(252) 526-0662,,2949 Hodges Farm Rd,La Grange,NC,28551,35.294318,-77.7129033,Lenoir,,,,,,,,,,,,,,
210,NcLenoirLaGrange2,Lenoir County Transfer Facility,(252) 526-0662,,2949 Hodges Farm Rd,La Grange,NC,28551,35.294318,-77.7129033,Lenoir,,,,,,,,,,,,,,
211,NcLenoirKinston,Deep Run Transfer Station,(252) 903-1409,,2287 Leslie R Stroud Road,Kinston,NC,28504,35.1711942,-77.6997624,Lenoir,,,,,,,,,,,,,,
212,NcLenoirLaGrange3,Lenoir County MSW Landfill,(252) 526-0662,,294 Hodges Farm Rd,La Grange,NC,28551,35.2976454,-77.7178888,Lenoir,,,,,,,,,,,,,,
213,NcLenoirLagrange4,Everett's LCID Pit,(252) 560-3356,,4100 Aldridge store rd,Lagrange,NC,28551,35.3324569,-77.7290154,Lenoir,,,,,,,,,,,,,,
214,NcLincolnCrouse1,Lincoln County C&D Unit,(704) 736-8477,,5291 Crouse Road,Crouse,NC,28033,35.4300569,-81.3538203,Lincoln,,,,,,,,,,,,,,
215,NcLincolnCrouse2,Lincoln County Landfill,(704) 732-9030,,5291 Crouse Road,Crouse,NC,28033,35.4300569,-81.3538203,Lincoln,,,,,,,,,,,,,,
216,NcLincolnStanley,Lake Norman Landfill,(704) 712-8560,,7099 Quarry Ln,Stanley,NC,28164,35.4301619,-81.0110723,Lincoln,,,,,,,,,,,,,,
217,NcMcDowellMarion,McDowell Co Transfer Facility,(828) 659-2521,,3809 NC 226 South,Marion,NC,28752,35.6540201,-81.9576329,McDowell,,,,,,,,,,,,,,
218,NcMaconFRANKLIN1,Macon County Landfill Open,(828) 349-2215,,1448 LAKESIDE DRIVE,FRANKLIN,NC,28734,35.2010749,-83.3769252,Macon,,,,,,,,,,,,,,
219,NcMaconHighlands,Highlands Transfer Station,(828) 526-2073,,1080 Rich Gap Rd.,Highlands,NC,28741,35.019265,-83.1765819,Macon,,,,,,,,,,,,,,
220,NcMaconFranklin2,"B & B Concrete Products, Inc.",(828) 524-6483,,1687 Georgia Road,Franklin,NC,28734,35.1516592,-83.3934819,Macon,,,,,,,,,,,,,,
221,NcMadisonMarshall1,Madison County C&D Unit,(828) 649-2311,,271 Craig Rudisill Road,Marshall,NC,28753,35.8096544,-82.7177865,Madison,,,,,,,,,,,,,,
222,NcMadisonMarshall2,Madison County Solid Waste HHW,(828) 649-2311,,271 Craig Rudisill Road,Marshall,NC,28753,35.8096544,-82.7177865,Madison,,,,,,,,,,,,,,
223,NcMadisonMarshall3,Madison County Transfer,(828) 649-2311,,271 Craig Rudisill Rd,Marshall,NC,28753,35.8096544,-82.7177865,Madison,,,,,,,,,,,,,,
224,NcMartinWilliamston,Martin County C&D Landfill,(252) 799-6552,,1445 Landfill Rd,Williamston,NC,27892,35.8620001,-77.0964247,Martin,,,,,,,,,,,,,,
225,NcMecklenburgHuntersville1,Duke Energy Carolinas - McGuire,(704) 382-7171,,13339 Hagers Ferry Road,Huntersville,NC,28078,35.4381281,-80.9420501,Mecklenburg,,,,,,,,,,,,,,
226,NcMecklenburgCharlotte1,Mecklenburg County-Central Compost,(980) 314-3873,,5631 West Blvd,Charlotte,NC,28217,35.1937284,-80.9529007,Mecklenburg,,,,,,,,,,,,,,
227,NcMecklenburgHuntersville2,Greenway Waste Solutions at North Meck,(704) 875-3367,,15300 Holbrooks Rd,Huntersville,NC,28078,35.4010895,-80.8190715,Mecklenburg,,,,,,,,,,,,,,
228,NcMecklenburgCharlotte2,Queen City Transfer Station,(931) 320-1380,,3130 Jeff Adams Road,Charlotte,NC,28206,35.271687,-80.8291719,Mecklenburg,,,,,,,,,,,,,,
229,NcMecklenburgPineville,Hensons' Inc. Mulch & More Pineville,(828) 859-5836,,13010 Lancaster Hwy,Pineville,NC,28134,35.0660352,-80.8776228,Mecklenburg,,,,,,,,,,,,,,
230,NcMecklenburgHuntersville3,North Mecklenburg HHW Facility,(980) 314-3873,,12300 Statesville Road,Huntersville,NC,28078,35.3875631,-80.8446011,Mecklenburg,,,,,,,,,,,,,,
231,NcMecklenburgHuntersville4,North Mecklenburg HHW Facility,(980) 314-3873,,12300 Statesville Road,Huntersville,NC,28078,35.3875631,-80.8446011,Mecklenburg,,,,,,,,,,,,,,
232,NcMecklenburgCharlotte3,Hickory Grove HHW Recycling Facility,(980) 314-3873,,8007 Pence Road,Charlotte,NC,28215,35.2194714,-80.6966422,Mecklenburg,,,,,,,,,,,,,,
233,NcMecklenburgCharlotte4,Hickory Grove HHW Recycling Facility,(980) 314-3873,,8007 Pence Road,Charlotte,NC,28215,35.2194714,-80.6966422,Mecklenburg,,,,,,,,,,,,,,
234,NcMecklenburgCharlotte5,Mecklenburg County Landfill,(980) 314-3873,,17131 Lancaster Hwy,Charlotte,NC,28277,35.0156302,-80.8496498,Mecklenburg,,,,,,,,,,,,,,
235,NcMecklenburgCharlotte6,Mecklenburg County Landfill,(980) 314-3873,,17131 Lancaster Highway,Charlotte,NC,28277,35.0156302,-80.8496498,Mecklenburg,,,,,,,,,,,,,,
236,NcMecklenburgCharlotte7,Mecklenburg County Landfill,(980) 314-3873,,17131 Lancaster Hwy,Charlotte,NC,28277,35.0156302,-80.8496498,Mecklenburg,,,,,,,,,,,,,,
237,NcMecklenburgCharlotte8,Ron Brewer Wood Recycling Center,(704) 399-5500,,10050 Metromont Industrial Blvd,Charlotte,NC,28269,35.3580949,-80.8304695,Mecklenburg,,,,,,,,,,,,,,
238,NcMecklenburgHuntersville5,Wallace Farms Compost Facility,(704) 875-2975,,14410 Eastfield Road,Huntersville,NC,28078,35.393369,-80.7678582,Mecklenburg,,,,,,,,,,,,,,
239,NcMecklenburgHuntersville6,"Soil Supply, Inc.",(704) 875-3774,,10219 Hagers Road,Huntersville,NC,28078,35.4281169,-80.8367301,Mecklenburg,,,,,,,,,,,,,,
240,NcMecklenburgCharlotte9,O'Leary Resource Recovery Center,(704) 338-6898,,3307 Darby Avenue,Charlotte,NC,28216,35.2583413,-80.8751478,Mecklenburg,,,,,,,,,,,,,,
241,NcMecklenburgCharlotte10,Orbit Energy Anerobic Digester Charlotte,(980) 265-0619,,600 Johnson Road,Charlotte,NC,28206,35.2624365,-80.811609,Mecklenburg,,,,,,,,,,,,,,
242,NcMecklenburgCharlotte11,"Kamps, Inc.",(616) 560-5678,,5104 N Graham St,Charlotte,NC,28269,35.2827568,-80.8030857,Mecklenburg,,,,,,,,,,,,,,
243,NcMecklenburgCharlotte12,Mecklenburg County Compost and Recycling Facility,(980) 314-3873,,140 Valleydale Road,Charlotte,NC,28214,35.2845671,-80.9176921,Mecklenburg,,,,,,,,,,,,,,
244,NcMecklenburgCharlotte13,Mecklenburg County Compost and Recycling Facility,(980) 314-3873,,2145 Suttle Ave,Charlotte,NC,28208,35.2236178,-80.8714195,Mecklenburg,,,,,,,,,,,,,,
245,NcMecklenburgCharlotte14,Ronald J Brewer,(704) 399-5500,,3015 Kelly Rd,Charlotte,NC,28216,35.3168218,-80.9108032,Mecklenburg,,,,,,,,,,,,,,
246,NcMecklenburgHuntersville7,"Metrolina Greenhouses, Inc.",(980) 229-0848,,16400 Huntersville-Concord Road,Huntersville,NC,28075,35.4193052,-80.7782463,Mecklenburg,,,,,,,,,,,,,,
247,NcMecklenburgCharlotte15,"Tommy Price, Inc.",(704) 724-3747,,10900 Pine Grove Ave,Charlotte,NC,28227,35.20917,-80.6638726,Mecklenburg,,,,,,,,,,,,,,
248,NcMecklenburgCharlotte16,Lakeview Road Landfill Inc,(704) 393-1778,,4627 Lakeview Road,Charlotte,NC,28216,35.3311124,-80.8610218,Mecklenburg,,,,,,,,,,,,,,
249,NcMecklenburgHuntersville8,Piedmont Grading & Wrecking,(704) 622-1388,,11898 Everett Keith Rd,Huntersville,NC,28078,35.3795641,-80.8199043,Mecklenburg,,,,,,,,,,,,,,
250,NcMecklenburgCharlotte17,Kenneth C. Reeves,(704) 548-8377,,2323 Salome Church Road,Charlotte,NC,28262,35.340651,-80.720826,Mecklenburg,,,,,,,,,,,,,,
251,NcMontgomeryMountGilead1,Uwharrie Environmental Mrf,(910) 606-3210,,500 Landfill Rd,Mount Gilead,NC,27306,35.333937,-79.9646511,Montgomery,,,,,,,,,,,,,,
252,NcMontgomeryMountGilead2,Uwharrie Env. Reg. Landfill,(910) 606-3210,,500 Landfill Rd,Mount Gilead,NC,27306,35.333937,-79.9646511,Montgomery,,,,,,,,,,,,,,
253,NcMontgomeryTroy,Uwharrie T&P Facility,(910) 606-3210,,500 Landfill Rd,Troy,NC,27371,35.333937,-79.9646511,Montgomery,,,,,,,,,,,,,,
254,NcMooreAberdeen1,Moore County C&D Landfill,(910) 947-4318,,456 Turning Leaf Way,Aberdeen,NC,28315,35.1475599,-79.4812972,Moore,,,,,,,,,,,,,,
255,NcMooreAberdeen2,Uwharrie Env Inc/Moore Cty Transfer Station,(910) 606-3210,,645 Turning Leaf Way,Aberdeen,NC,28315,35.147607,-79.48989,Moore,,,,,,,,,,,,,,
256,NcMooreAberdeen3,Moore County Eagle Springs Road HHW Collection Center,(910) 947-4318,,456 Turning Leaf Way,Aberdeen,NC,28315,35.1475599,-79.4812972,Moore,,,,,,,,,,,,,,
257,NcNashNashville1,Nash County C&D Landfill,(252) 459-9899,,3057 Duke Rd.,Nashville,NC,27816,36.0614451,-77.9936489,Nash,,,,,,,,,,,,,,
258,NcNashRockyMount1,"Rocky Mount, City of Transfer Station #2",(252) 343-3152,,1221 Thorpe Rd,Rocky Mount,NC,27804,35.9717345,-77.7963847,Nash,,,,,,,,,,,,,,
259,NcNashNashville2,"Carolina Recycled Ag Materials, LLC.",(252) 343-1615,,4330 Universal Leaf Drive,Nashville,NC,27856,36.0192107,-78.0396817,Nash,,,,,,,,,,,,,,
260,NcNashRockyMount2,Rocky Mount Compost Facility,(252) 467-4909,,394 Arrow Road,Rocky Mount,NC,27804,35.9758813,-77.890696,Nash,,,,,,,,,,,,,,
261,NcNewHanoverWilmington1,New Hanover County Compost Facility,(910) 798-4403,,5210 U.S. Highway 421 N.,Wilmington,NC,28401,34.3254869,-77.989819,New Hanover,,,,,,,,,,,,,,
262,NcNewHanoverWilmington2,New Hanover County Landfill,(910) 798-4403,,5210 US Highway 421 North,Wilmington,NC,28401,34.3254869,-77.989819,New Hanover,,,,,,,,,,,,,,
263,NcNewHanoverWilmington3,New Hanover County Landfill,(910) 798-4403,,5210 US Highway 421 North,Wilmington,NC,28401,34.3254869,-77.989819,New Hanover,,,,,,,,,,,,,,
264,NcNewHanoverWilmington4,New Hanover County Materials Recovery & Recycling Facility,(910) 798-4403,,5210 US Highway 421 North,Wilmington,NC,28401,34.3254869,-77.989819,New Hanover,,,,,,,,,,,,,,
265,NcNewHanoverWilmington5,New Hanover Waste-to-Energy Facility,(910) 798-4403,,3002 U.S. Highway 421 N.,Wilmington,NC,28401,34.281889,-77.9589326,New Hanover,,,,,,,,,,,,,,
266,NcNewHanoverWilmington6,Waste Management Of Wilmington Transfer,(910) 915-9040,,3920 River Rd,Wilmington,NC,28412,34.1639722,-77.9441042,New Hanover,,,,,,,,,,,,,,
267,NcNewHanoverWilmington7,American Property Experts,(910) 793-1460,,606 Sunnyvale Rd,Wilmington,NC,28412,34.1752191,-77.9374995,New Hanover,,,,,,,,,,,,,,
268,NcNewHanoverWilmington8,Duke Energy Progress - Sutton Energy Complex,(919) 546-7863,,801 Sutton Steam Plant Road,Wilmington,NC,28401,34.283469,-77.984517,New Hanover,,,,,,,,,,,,,,
269,NcOnslowJacksonville1,Onslow County Landfill : LCID Unit,(910) 937-1443,,415 Meadowview Road,Jacksonville,NC,28540,34.7979944,-77.5382177,Onslow,,,,,,,,,,,,,,
270,NcOnslowCampLejeune1,Camp Lejeune MSW Landfill,(910) 451-5003,,Piney Green Road,Camp Lejeune,NC,,34.7084979,-77.3219613,Onslow,,,,,,,,,,,,,,
271,NcOnslowJacksonville2,Onslow County Subtitle-D Landfill,(910) 937-1443,,415 Meadowview Road,Jacksonville,NC,28540,34.7979944,-77.5382177,Onslow,,,,,,,,,,,,,,
272,NcOnslowCampLejeune2,Camp Lejeune Compost Facility,(910) 451-5003,,Piney Green Road,Camp Lejeune,NC,28547,34.7084979,-77.3219613,Onslow,,,,,,,,,,,,,,
273,NcOnslowCampLejeune3,Camp Lejeune T&P,(910) 451-5003,,Piney Green Road,Camp Lejeune,NC,28547,34.7084979,-77.3219613,Onslow,,,,,,,,,,,,,,
274,NcOnslowHollyRidge,Folkstone C&D Recycling Collection/Transfer Facility,(910) 284-2309,,1172 Hwy 172,Holly Ridge,NC,28445,34.5391013,-77.5028181,Onslow,,,,,,,,,,,,,,
275,NcOnslowJacksonville3,Morton Trucking Site,(910) 548-0194,,121 Garnet Lane,Jacksonville,NC,28546,34.8013606,-77.3536189,Onslow,,,,,,,,,,,,,,
276,NcOnslowJacksonville4,Eastern Excavating Landfill,(910) 353-9100,,143 Penguin Ln,Jacksonville,NC,28546,34.7708262,-77.3352692,Onslow,,,,,,,,,,,,,,
277,NcOnslowJacksonville5,Haugen Landfill,(910) 324-8025,,3062 Burgaw Hwy.,Jacksonville,NC,28540,34.73757,-77.543643,Onslow,,,,,,,,,,,,,,
278,NcOnslowJacksonville6,Parker Meadow LCID LF,(910) 346-4727,,off Jim Parker Road,Jacksonville,NC,28546,34.8153636,-77.3787406,Onslow,,,,,,,,,,,,,,
279,NcOnslowJacksonville7,Rocky Run Inert Debris,(910) 330-5776,,3121 New Bern Highway,Jacksonville,NC,28546,34.791158,-77.375929,Onslow,,,,,,,,,,,,,,
280,"NcPamlicoGrantsboro,NC",Pamlico County Transfer Station,(252) 633-1564,,3291 Highway 306 N,"Grantsboro, NC",NC,28529,35.188579,-76.849801,Pamlico,,,,,,,,,,,,,,
281,NcPasquotankElizabethCity1,Pasquotank County C&D Landfill,(252) 335-4105,,983 Simpson Ditch Road,Elizabeth City,NC,27909,36.2527121,-76.2647792,Pasquotank,,,,,,,,,,,,,,
282,NcPasquotankElizabethCity2,Pasquotank County Transfer Station,(252) 335-4105,,983 Simpson Ditch Road,Elizabeth City,NC,27909,36.2527121,-76.2647792,Pasquotank,,,,,,,,,,,,,,
283,NcPenderHampstead,Pender Co Transfer Station,(910) 259-0212,,250 Transfer Station Rd.,Hampstead,NC,28443,34.3957169,-77.6680922,Pender,,,,,,,,,,,,,,
284,NcPenderRockyPoint,Running Deer LCID Landfill,(910) 619-4121,,7214 NC Hwy 210,Rocky Point,NC,28457,34.4283376,-77.788697,Pender,,,,,,,,,,,,,,
285,NcPerquimansBelvidere,Perquimans-Chowan-Gates Transfer,(252) 297-6524,,759 Perry's Bridge Rd,Belvidere,NC,27919,36.3089892,-76.5456395,Perquimans,,,,,,,,,,,,,,
286,NcPersonSemora,Duke Energy Progress - Roxboro,(336) 215-4576,,1700 Dunnaway Road,Semora,NC,27343,36.4816916,-79.0700224,Person,,,,,,,,,,,,,,
287,NcPersonRougemont,Upper Piedmont Regional Landfill,(336) 364-3699,,9650 Oxford Road,Rougemont,NC,27572,36.336724,-78.8309867,Person,,,,,,,,,,,,,,
288,NcPersonRoxboro1,Duke Energy Progress - Mayo,(336) 215-4576,,10660 Boston Road,Roxboro,NC,27574,36.52169,-78.9062861,Person,,,,,,,,,,,,,,
289,NcPersonRoxboro2,Person County Recycling Center,(336) 599-7571,,741 Martin Street,Roxboro,NC,27573,36.3914671,-79.0040644,Person,,,,,,,,,,,,,,
290,NcPersonSemora,Duke Energy Progress - Roxboro,(336) 215-4576,,1700 Dunnaway Road,Semora,NC,27343,36.4816916,-79.0700224,Person,,,,,,,,,,,,,,
291,NcPittGreenville1,Pitt County Materials Recovery & Recycling Facility,(252) 902-3355,,3025 Landfill Road,Greenville,NC,27834,35.59785,-77.4317505,Pitt,,,,,,,,,,,,,,
292,NcPittGreenville2,Pitt County Transfer Station,(252) 902-3355,,3025 Landfill Road,Greenville,NC,27834,35.59785,-77.4317505,Pitt,,,,,,,,,,,,,,
293,NcPittGreenville3,EJE Recycling Transfer Station,(252) 916-4770,,802 recycling lane,Greenville,NC,27834,35.6208868,-77.1817215,Pitt,,,,,,,,,,,,,,
294,NcPittGreenville4,C & D Landfill Inc,(252) 752-8274,,802 Recycling Lane,Greenville,NC,27834,35.6208868,-77.1817215,Pitt,,,,,,,,,,,,,,
295,NcPittGreenville5,E R Lewis Construction,(252) 321-1101,,1462 Edwards Farm Road,Winterville,NC,28590,35.519735,-77.346985,Pitt,,,,,,,,,,,,,,
296,NcPittGreenville6,E R Lewis,(252) 321-1101,,3034 NC Highway 33 East,Greenville,NC,27834,35.681952,-77.427572,Pitt,,,,,,,,,,,,,,
297,NcPolkMillSpringN.C.,Polk County Transfer Station,(828) 894-3737,,322 landfill rd,Mill Spring N.C.,NC,28756,35.319338,-82.183714,Polk,,,,,,,,,,,,,,
298,NcRandolphRandleman1,Energizer Battery Manufacturing Inc.,(336) 672-4546,,County Land Road,Randleman,NC,27317,35.7535071,-79.7671347,Randolph,,,,,,,,,,,,,,
299,NcRandolphAsheboro1,N.C. Zoological Park,(336) 879-7420,,4401 Zoo Parkway,Asheboro,NC,27205,35.6300322,-79.7666256,Randolph,,,,,,,,,,,,,,
300,NcRandolphAsheboro2,"Asheboro, City of Recycling/SW Transfer Station",(336) 626-1234,,630 Transfer Station Place,Asheboro,NC,27203,35.7175952,-79.7966076,Randolph,,,,,,,,,,,,,,
301,NcRandolphAsheboro3,Gold Hill Road C&D Debris Landfill,(336) 629-7175,,385 Gold Hill Road,Asheboro,NC,27203,35.7192678,-79.7918883,Randolph,,,,,,,,,,,,,,
302,NcRandolphRandleman2,Great Oak Landfill,(336) 865-3201,,3597 Old Cedar Falls Road,Randleman,NC,27317,35.7460728,-79.7422439,Randolph,,,,,,,,,,,,,,
303,NcRandolphAsheboro,"Asheboro, City of Compost Facility",(336) 626-1234,,2139 Old Lexington Road,Asheboro,NC,27205,35.7284109,-79.8569455,Randolph,,,,,,,,,,,,,,
304,NcRichmondRockingham,Richmond County Transfer Facility,(910) 997-8338,,191 Walter Kelly Rd,Rockingham,NC,28379,35.015075,-79.8057287,Richmond,,,,,,,,,,,,,,
305,NcRichmondHamlet,"Hamlet, Town Of",(910) 582-7987,,1000 Oakhurst Street,Hamlet,NC,28345,34.8805094,-79.6985594,Richmond,,,,,,,,,,,,,,
306,NcRobesonSaintPauls1,Robeson County CDLF,(910) 865-3348,,246 Landfill Road,Saint Pauls,NC,28384,34.7927157,-78.9082699,Robeson,,,,,,,,,,,,,,
307,NcRobesonSaintPauls2,Robeson County Landfill,(910) 865-3348,,246 landfill Road,Saint Pauls,NC,28384,34.7927157,-78.9082699,Robeson,,,,,,,,,,,,,,
308,NcRobesonLumberton,"Lumberton, City of LCID Landfill",(910) 671-3851,,500 N Cedar Street,Lumberton,NC,28358,34.6207466,-79.0026956,Robeson,,,,,,,,,,,,,,
309,NcRockinghamReidsville1,"Reidsville, City Of Transfer Facility",(336) 349-1074,,709 Marcellus St,Reidsville,NC,27320,36.354813,-79.679584,Rockingham,,,,,,,,,,,,,,
310,NcRockinghamEden1,"Eden, City of HHW Collection Facility",(336) 627-7783,,123 Mebane bridge Rd,Eden,NC,27288,36.4771383,-79.7401816,Rockingham,,,,,,,,,,,,,,
311,NcRockinghamEden2,"Eden, City of Transfer Station",(336) 627-7783,,123 Mebane Bridge rd.,Eden,NC,27288,36.4771383,-79.7401816,Rockingham,,,,,,,,,,,,,,
312,NcRockinghamMadison,Rockingham County Landfill,(336) 613-4141,,223 Shuff Road,Madison,NC,27025,36.3745902,-79.8499621,Rockingham,,,,,,,,,,,,,,
313,NcRockinghamEden3,Duke Energy Carolinas - Dan River,(336) 445-0610,,900 South Edgewood Road,Eden,NC,27288,36.486373,-79.7208605,Rockingham,,,,,,,,,,,,,,
314,NcRockinghamReidsville2,Reidsville Yard Waste & Material Recovery Facility,(336) 349-1074,,407 Broad Street,Reidsville,NC,27320,36.3232638,-79.6570083,Rockingham,,,,,,,,,,,,,,
315,NcRowanWoodleaf,Rowan County Landfill,(704) 216-8606,,789 Campbell Rd.,Woodleaf,NC,27054,35.757247,-80.5550971,Rowan,,,,,,,,,,,,,,
316,NcRowanEastSpencer,East Spencer Waste Transfer Facility,(252) 230-2609,,1000 N Long St,East Spencer,NC,28144,35.691103,-80.42032,Rowan,,,,,,,,,,,,,,
317,NcRowanSalisbury,Salisbury Grants Creek Compost Facility,(704) 216-8028,,1955 Grubb Ferry Rd,Salisbury,NC,28144,35.7142562,-80.4339105,Rowan,,,,,,,,,,,,,,
318,NcRutherfordRutherfordton1,Rutherford County C&D,(828) 287-6002,,656 Laurel Hill Dr.,Rutherfordton,NC,28139,35.3504922,-81.9520112,Rutherford,,,,,,,,,,,,,,
319,NcRutherfordRutherfordton2,Rutherford County Transfer Facility,(828) 287-6002,,656 Laurel Hill Dr.,Rutherfordton,NC,28139,35.3504922,-81.9520112,Rutherford,,,,,,,,,,,,,,
320,NcRutherfordRutherfordton3,Rutherford County MSW Landfill,(828) 287-6002,,656 Laurel Hill Dr.,Rutherfordton,NC,28139,35.3504922,-81.9520112,Rutherford,,,,,,,,,,,,,,
321,NcRutherfordMooresboro,Duke Energy Carolinas - Rogers,(980) 373-2779,,573 Duke Power Road,Mooresboro,NC,28114,35.2143969,-81.7603481,Rutherford,,,,,,,,,,,,,,
322,NcSampsonRoseboro1,"Sampson County Disposal, LLC",(910) 525-4132,,7434 Roseboro Hwy,Roseboro,NC,28382,34.9662257,-78.4503274,Sampson,,,,,,,,,,,,,,
323,NcSampsonRoseboro2,"Sampson County Disposal, LLC",(910) 525-4132,,7434 Roseboro Hwy,Roseboro,NC,28382,34.9662257,-78.4503274,Sampson,,,,,,,,,,,,,,
324,NcSampsonGodwin,Coastal Protein,(910) 567-6102,,1600 Martin Road,Godwin,NC,28344,35.157435,-78.6298551,Sampson,,,,,,,,,,,,,,
325,NcScotlandMaxton1,Scotland County CDLF,(910) 844-9206,,10681 Patterson Rd,Maxton,NC,28364,34.7266074,-79.379287,Scotland,,,,,,,,,,,,,,
326,NcScotlandMaxton2,Scotland County Transfer Station,(910) 844-9206,,21104 Old Maxton Rd,Maxton,NC,28364,34.726996,-79.379778,Scotland,,,,,,,,,,,,,,
327,NcStanlyAlbemarle1,"Albemarle, City of CDLF",(704) 984-9680,,40592B Stony Gap Road,Albemarle,NC,28001,35.3146521,-80.153085,Stanly,,,,,,,,,,,,,,
328,NcStanlyAlbemarle2,"Albemarle, City of Landfill",(704) 984-9680,,40592B Stony Gap Road,Albemarle,NC,28001,35.3146521,-80.153085,Stanly,,,,,,,,,,,,,,
329,NcStokesBelewsCreek1,"Duke Energy Carolinas - Belews Creek, Craig Road Landfill",(336) 445-0610,,3195 Pine Hall Road,Belews Creek,NC,27052,36.2921643,-80.0641321,Stokes,,,,,,,,,,,,,,
330,NcStokesBelewsCreek2,"Duke Energy Carolinas - Belews Creek, FGD",(336) 445-0610,,3195 Pine Hall Road,Belews Creek,NC,27052,36.2921643,-80.0641321,Stokes,,,,,,,,,,,,,,
331,NcSurryMountAiry,Surry County MSWLF,(336) 401-8375,,237 Landfill Road,Mount Airy,NC,27030,36.4383259,-80.5682787,Surry,,,,,,,,,,,,,,
332,NcSurryPilotMountain,"New River Tire Recycling, LLC",(276) 728-0201,,312 E 52 Bypass,Pilot Mountain,NC,27041,36.385914,-80.461014,Surry,,,,,,,,,,,,,,
333,NcSwainbrysoncity1,Swain County Transfer Facility,(828) 488-4999,,1422 hwy 19 south,bryson city,NC,28713,35.4152525,-83.4653137,Swain,,,,,,,,,,,,,,
334,NcSwainbrysoncity2,Swain County LCID,(828) 488-4999,,1422 hwy 19 sounth,bryson city,NC,28713,35.4152525,-83.4653137,Swain,,,,,,,,,,,,,,
335,NcTransylvaniaBrevard1,Transylvania County HHW Unit,(828) 577-3603,,500 Howell Road,Brevard,NC,28712,35.118059,-82.843784,Transylvania,,,,,,,,,,,,,,
336,NcTransylvaniaBrevard2,Transylvania County LCID,(828) 884-1842,,500 Howell Road,Brevard,NC,28712,35.118059,-82.843784,Transylvania,,,,,,,,,,,,,,
337,NcTransylvaniaBrevard3,Transylvania County Landfill,(828) 884-1842,,500 Howell Road,Brevard,NC,28712,35.118059,-82.843784,Transylvania,,,,,,,,,,,,,,
338,NcUnionWingate1,Union County C&D,(704) 989-1949,,2125 Austin Chaney Road,Wingate,NC,28174,35.0393722,-80.4593781,Union,,,,,,,,,,,,,,
339,NcUnionWingate2,Union County Transfer Station,(704) 989-1949,,2125 Austin Chaney Road,Wingate,NC,28174,35.0393722,-80.4593781,Union,,,,,,,,,,,,,,
340,NcUnionMonroe1,Griffin Farm LCID Landfill,(704) 361-7791,,4242 Morgan Mill Rd,Monroe,NC,28110,35.0513518,-80.4965356,Union,,,,,,,,,,,,,,
341,NcUnionMonroe2,God Bless the USA Transfer Station,(704) 398-4488,,3320 Westwood Industrial Drive,Monroe,NC,28110,35.012873,-80.6096538,Union,,,,,,,,,,,,,,
342,NcVanceHenderson,Waste Industries-Vance County,(260) 579-1861,,3453 Hwy 39 N,Henderson,NC,27537,36.3732755,-78.420836,Vance,,,,,,,,,,,,,,
343,NcWakeApex1,South Wake Co Feltonsville HHW Facility,(919) 856-5698,,6130 Old Smithfield Road,Apex,NC,27539,35.6830108,-78.8436689,Wake,,,,,,,,,,,,,,
344,NcWakeCary,"Cary, Town of Transfer Station",(919) 469-4388,,313 N. Dixon Ave.,Cary,NC,27513,35.7907676,-78.7896618,Wake,,,,,,,,,,,,,,
345,NcWakeRaleigh1,"Raleigh, City of Yard Waste Facility",(919) 996-6880,,900 N. New Hope Rd,Raleigh,NC,27610,35.7869382,-78.5586989,Wake,,,,,,,,,,,,,,
346,NcWakeMorrisville1,Waste Management Of Raleigh/Durham Transfer Station,(919) 389-3362,,10411 GLOBE RD,Morrisville,NC,27560,35.8929286,-78.803276,Wake,,,,,,,,,,,,,,
347,NcWakeGarner,WI Garner Transfer Station,(919) 662-7100,,3741 Conquest Drive,Garner,NC,27529,35.727445,-78.5696339,Wake,,,,,,,,,,,,,,
348,NcWakeRaleigh2,North Wake Co HHW Collection Facility,(919) 856-5698,,9037 Deponie Drive,Raleigh,NC,27614,35.9051757,-78.5797029,Wake,,,,,,,,,,,,,,
349,NcWakeApex2,Wake County South Wake MSWLF,(919) 856-6365,,6300 Old Smithfield Road,Apex,NC,27539,35.6814194,-78.8447452,Wake,,,,,,,,,,,,,,
350,NcWakeRaleigh3,Buffaloe LCID Landfill & Wood Recycling Facility,(919) 772-4166,,5525 Wake Academy Drive,Raleigh,NC,27603,35.7048726,-78.6666331,Wake,,,,,,,,,,,,,,
351,NcWakeRaleigh4,Buffaloe LCID Landfill & Wood Recycling Facility,(919) 772-4166,,5525 Wake Academy Drive,Raleigh,NC,27603,35.7048726,-78.6666331,Wake,,,,,,,,,,,,,,
352,NcWakeRaleigh5,"Wake Reclamation, LLC",(919) 557-9583,,421 Raleigh View Rd,Raleigh,NC,27610,35.7466793,-78.6338819,Wake,,,,,,,,,,,,,,
353,NcWakeWendell1,"Shotwell Landfill, Inc ",(919) 876-8485,,4724 Smithfield Road,Wendell,NC,27591,35.7243669,-78.4348934,Wake,,,,,,,,,,,,,,
354,NcWakeWendell2,Shotwell Landfill Recycling Center,(919) 876-8485,,4724 Smithfield Road,Wendell,NC,27591,35.7243669,-78.4348934,Wake,,,,,,,,,,,,,,
355,NcWakeRaleigh6,Raleigh Transfer Station,(919) 433-0906,,5565 Thornton Rd,Raleigh,NC,27616,35.8996024,-78.5448787,Wake,,,,,,,,,,,,,,
356,NcWakeHollySprings,Red Rock Disposal C&D Landfill,(919) 557-9583,,7130 New Landfill Drive,Holly Springs,NC,27540,35.6044096,-78.8973432,Wake,,,,,,,,,,,,,,
357,NcWakeApex3,Shotwell Transfer Station II,(919) 876-8485,,1506 N Salem Street,Apex,NC,27502,35.7488666,-78.8490028,Wake,,,,,,,,,,,,,,
358,NcWakeApex4,"Greenway Waste Solutions of Apex, LLC",(919) 367-2895,,5940 Old Smithfield Rd,Apex,NC,27539,35.6871967,-78.8434181,Wake,,,,,,,,,,,,,,
359,NcWakeApex5,"Greenway Waste Solutions of Apex, LLC",(919) 367-2895,,5940 Old Smithfield Rd,Apex,NC,27539,35.6871967,-78.8434181,Wake,,,,,,,,,,,,,,
360,NcWakeRaleigh7,Brownfield Road C&D Landfill,(919) 557-9583,,2600 Brownfield Road,Raleigh,NC,,35.7103883,-78.5043167,Wake,,,,,,,,,,,,,,
361,NcWakeRaleigh8,"Raleigh, City of East Wake Transfer Station",(919) 856-6365,,820 Corporation Parkway,Raleigh,NC,27610,35.7901888,-78.569959,Wake,,,,,,,,,,,,,,
362,NcWakeRaleigh9,"Waste Industries, LLC",(919) 557-9583,,9220 Durant Rd,Raleigh,NC,27616,35.8993751,-78.568403,Wake,,,,,,,,,,,,,,
363,NcWakeRaleigh10,NC State University Compost Facility & Research Cooperative,(919) 830-0766,,4231 Inwood Road,Raleigh,NC,27603,35.724536,-78.6752028,Wake,,,,,,,,,,,,,,
364,NcWakeRaleigh11,"Capital Waste Transfer, LLC",(919) 876-8485,,424 Warehouse Drive,Raleigh,NC,27610,35.7521017,-78.632869,Wake,,,,,,,,,,,,,,
365,NcWakeZebulon,Wake HHW Wendell,(919) 856-5698,,5051 Wendell Blvd,Zebulon,NC,27591,35.7984525,-78.3457754,Wake,,,,,,,,,,,,,,
366,NcWakeApex6,Elite Waste Services Pristine Water Facility,(919) 704-0312,,520 Pristine Water Dr.,Apex,NC,27539,35.7063372,-78.8261421,Wake,,,,,,,,,,,,,,
367,NcWakeMorrisville2,"Morrisville Transfer Station, LLC",(919) 876-8485,,230 International Drive,Morrisville,NC,27560,35.8442433,-78.8271847,Wake,,,,,,,,,,,,,,
368,NcWakeRaleigh12,Wall Recycling LCID Landfill,(919) 906-2747,,3000 Gresham Lake Rd,Raleigh,NC,27615,35.8825242,-78.5866663,Wake,,,,,,,,,,,,,,
369,NcWakeApex7,Currin Brothers Landfill,(919) 876-1138,,4525 Sunset Lake Road,Apex,NC,27539,35.6802306,-78.8125961,Wake,,,,,,,,,,,,,,
370,NcWakeRaleigh13,Carolina Tree Debris,(919) 880-2852,,1417 Old Watkins rd,Raleigh,NC,27616,35.8636163,-78.5056705,Wake,,,,,,,,,,,,,,
371,NcWarrenWarrenton,Warren County Transfer Station,(252) 257-1948,,559 Baltimore Road,Warrenton,NC,27589,36.388038,-78.142399,Warren,,,,,,,,,,,,,,
372,NcWashingtonPlymouth,"Domtar Paper Company Landfill, Lined #3",(252) 793-8843,,Hwy 149 North,Plymouth,NC,27962,35.8580275,-76.7767482,Washington,,,,,,,,,,,,,,
373,NcWashingtonRoper,Washington County C&D Landfill,(252) 793-5615,,718 Landfill Rd,Roper,NC,27970,35.9185876,-76.6647563,Washington,,,,,,,,,,,,,,
374,NcWataugaBoone1,Watauga County Landclearing,(828) 264-5305,,336 Landfill Road,Boone,NC,28607,36.2198678,-81.6333906,Watauga,,,,,,,,,,,,,,
375,NcWataugaBoone2,Watauga County Permanent HHW Facility,(828) 264-5305,,512 Landfill Road,Boone,NC,28607,36.219416,-81.6314679,Watauga,,,,,,,,,,,,,,
376,NcWataugaBoone3,Watauga Co Transfer Facility,(828) 264-5305,,463 Landfill Road,Boone,NC,28607,36.2199,-81.631405,Watauga,,,,,,,,,,,,,,
377,NcWataugaBoone4,Appalachian State University,(828) 406-2289,,265 Dale Street,Boone,NC,28607,36.2056672,-81.6566733,Watauga,,,,,,,,,,,,,,
378,NcWataugaBoone5,Triple T Pumping Compost Facility,(828) 265-9005,,1372 NC Hwy 194 N,Boone,NC,28607,36.235565,-81.6570519,Watauga,,,,,,,,,,,,,,
379,NcWayneDUDLEY1,Wayne County CDLF,(919) 689-2994,,460B SOUTH LANDFILL ROAD,DUDLEY,NC,28333,35.2897906,-78.0714779,Wayne,,,,,,,,,,,,,,
380,NcWayneDUDLEY2,Wayne County Landfill,(919) 689-2994,,460B SOUTH LANDFILL ROAD,DUDLEY,NC,28333,35.2897906,-78.0714779,Wayne,,,,,,,,,,,,,,
381,NcWayneGoldsboro,"Goldsboro, City of Transfer Station",(919) 739-7450,,905 Brick Street,Goldsboro,NC,27530,35.3759493,-78.0135272,Wayne,,,,,,,,,,,,,,
382,NcWilkesNorthWilkesboro,Louisiana-Pacific Corporation,(336) 696-3483,,1068 ABTCO Road,North Wilkesboro,NC,28659,36.2007022,-81.029462,Wilkes,,,,,,,,,,,,,,
383,NcWilkesRoaringRiver,Wilkes County MSWLF,(336) 696-5806,,9219 Elkin Highway,Roaring River,NC,28669,36.2076317,-80.9899996,Wilkes,,,,,,,,,,,,,,
384,NcWilsonWilson1,Waste Industries Wilson Transfer St.,(252) 243-6460,,2810 Contentnea Rd,Wilson,NC,27893,35.6870597,-77.9199148,Wilson,,,,,,,,,,,,,,
385,NcWilsonWilson2,Waste Industries- Blk. Crk. Rd. Transfer,(252) 243-6460,,3031 Black Creek Rd,Wilson,NC,27893,35.6846216,-77.9050057,Wilson,,,,,,,,,,,,,,
386,NcWilsonWilson3,Wilson County Westside C&D Landfill,(252) 399-2823,,2400 NC HWY 42 EAST,Wilson,NC,27893,35.732156,-77.865574,Wilson,,,,,,,,,,,,,,
387,NcWilsonStantonsburg,D&D Septic Compost Facility,(919) 920-0368,,7984 Pelt Rd,Stantonsburg,NC,27830,35.5948107,-77.8765444,Wilson,,,,,,,,,,,,,,
388,NcYadkinYadkinville,Yadkin County Transfer Facility,(336) 849-7912,,1149 Landfill Rd,Yadkinville,NC,27055,36.180147,-80.642586,Yadkin,,,,,,,,,,,,,,
